COMMENT,ORIGINATOR,NORAD_CAT_ID,OBJECT_NAME,OBJECT_TYPE,CLASSIFICATION_TYPE,INTLDES,EPOCH,EPOCH_MICROSECONDS,MEAN_MOTION,ECCENTRICITY,INCLINATION,RA_OF_ASC_NODE,ARG_OF_PERICENTER,MEAN_ANOMALY,EPHEMERIS_TYPE,ELEMENT_SET_NO,REV_AT_EPOCH,BSTAR,MEAN_MOTION_DOT,MEAN_MOTION_DDOT,FILE,TLE_LINE0,TLE_LINE1,TLE_LINE2,OBJECT_ID,OBJECT_NUMBER,SEMIMAJOR_AXIS,PERIOD,APOGEE,PERIGEE,DECAYED
"GENERATED VIA SPACETRACK.ORG API","18 SPCS","12345","COSMOS 1174 DEB","DEBRIS","U","80030T","1986-02-12 16:20:46","933727","14.07843304","0.0609459","66.057","254.9428","148.6079","215.2451","0","999","74521","0.00071877","0.00007225","0","34507","0 COSMOS 1174 DEB","1 12345U 80030T   86043.68109877  .00007225 +00000-0 +71877-3 0  9992","2 12345 066.0570 254.9428 0609459 148.6079 215.2451 14.07843304745216","1980-030T","12345","7244.903","102.284","1308.315","425.221","1"
"GENERATED VIA SPACETRACK.ORG API","18 SPCS","12345","COSMOS 1174 DEB","DEBRIS","U","80030T","1986-02-11 16:28:38","566271","14.07838857","0.0611333","66.0583","257.5308","149.2575","214.6434","0","999","74507","0.00084969","0.00008666","0","34507","0 COSMOS 1174 DEB","1 12345U 80030T   86042.68655748  .00008666 +00000-0 +84969-3 0  9990","2 12345 066.0583 257.5308 0611333 149.2575 214.6434 14.07838857745073","1980-030T","12345","7244.918","102.284","1309.689","423.877","1"
"GENERATED VIA SPACETRACK.ORG API","18 SPCS","12345","COSMOS 1174 DEB","DEBRIS","U","80030T","1986-02-09 23:33:29","96927","14.07801267","0.0611334","66.0582","261.9735","150.1661","213.6363","0","999","74483","0.00071591","0.00007273","0","34507","0 COSMOS 1174 DEB","1 12345U 80030T   86040.98158677  .00007273 +00000-0 +71591-3 0  9990","2 12345 066.0582 261.9735 0611334 150.1661 213.6363 14.07801267744831","1980-030T","12345","7245.047","102.287","1309.827","423.998","1"
"GENERATED VIA SPACETRACK.ORG API","18 SPCS","12345","COSMOS 1174 DEB","DEBRIS","U","80030T","1986-02-09 15:01:59","428992","14.07778418","0.0612051","66.0563","262.9009","150.5406","213.2155","0","999","74478","0.00039033","0.00003927","0","34507","0 COSMOS 1174 DEB","1 12345U 80030T   86040.62638228  .00003927 +00000-0 +39033-3 0  9993","2 12345 066.0563 262.9009 0612051 150.5406 213.2155 14.07778418744783","1980-030T","12345","7245.126","102.289","1310.429","423.552","1"
"GENERATED VIA SPACETRACK.ORG API","18 SPCS","12345","COSMOS 1174 DEB","DEBRIS","U","80030T","1986-02-09 01:23:34","462463","14.07770922","0.0611703","66.0577","264.3803","150.7114","212.9782","0","999","74470","0.00034227","0.00003421","0","34507","0 COSMOS 1174 DEB","1 12345U 80030T   86040.05803776  .00003421 +00000-0 +34227-3 0  9991","2 12345 066.0577 264.3803 0611703 150.7114 212.9782 14.07770922744703","1980-030T","12345","7245.151","102.289","1310.204","423.828","1"
"GENERATED VIA SPACETRACK.ORG API","18 SPCS","12345","COSMOS 1174 DEB","DEBRIS","U","80030T","1986-02-08 01:31:20","720064","14.07757222","0.0612113","66.0581","266.9726","151.2886","212.3408","0","999","74456","0.00016933","0.00001637","0","34507","0 COSMOS 1174 DEB","1 12345U 80030T   86039.06343426  .00001637 +00000-0 +16933-3 0  9992","2 12345 066.0581 266.9726 0612113 151.2886 212.3408 14.07757222744569","1980-030T","12345","7245.198","102.290","1310.551","423.575","1"
"GENERATED VIA SPACETRACK.ORG API","18 SPCS","12345","COSMOS 1174 DEB","DEBRIS","U","80030T","1986-02-06 01:46:50","806559","14.07747071","0.0612329","66.0586","272.1575","152.4302","211.0731","0","999","74428","0.00010337","0.00000955","0","34507","0 COSMOS 1174 DEB","1 12345U 80030T   86037.07419915  .00000955 +00000-0 +10337-3 0  9992","2 12345 066.0586 272.1575 0612329 152.4302 211.0731 14.07747071744285","1980-030T","12345","7245.233","102.291","1310.745","423.451","1"
"GENERATED VIA SPACETRACK.ORG API","18 SPCS","12345","COSMOS 1174 DEB","DEBRIS","U","80030T","1986-02-05 01:54:35","461440","14.07743372","0.0611708","66.0595","274.7515","152.952","210.4779","0","999","74414","0.000071658","0.00000681","0","34507","0 COSMOS 1174 DEB","1 12345U 80030T   86036.07957710  .00000681 +00000-0 +71658-4 0  9991","2 12345 066.0595 274.7515 0611708 152.9520 210.4779 14.07743372744144","1980-030T","12345","7245.246","102.291","1310.308","423.913","1"
"GENERATED VIA SPACETRACK.ORG API","18 SPCS","12345","COSMOS 1174 DEB","DEBRIS","U","80030T","1986-02-04 02:02:19","959072","14.07743116","0.0612363","66.059","277.3432","153.5561","209.821","0","999","74400","0.00011843","0.00001112","0","34507","0 COSMOS 1174 DEB","1 12345U 80030T   86035.08495323  .00001112 +00000-0 +11843-3 0  9997","2 12345 066.0590 277.3432 0612363 153.5561 209.8210 14.07743116744009","1980-030T","12345","7245.247","102.291","1310.784","423.440","1"
"GENERATED VIA SPACETRACK.ORG API","18 SPCS","12345","COSMOS 1174 DEB","DEBRIS","U","80030T","1986-01-27 01:21:51","172128","14.07715848","0.061367","66.0599","298.2684","158.1449","204.7064","0","999","74287","0.00019529","0.0000192","0","34507","0 COSMOS 1174 DEB","1 12345U 80030T   86027.05684227  .00001920 +00000-0 +19529-3 0  9994","2 12345 066.0599 298.2684 0613670 158.1449 204.7064 14.07715848742872","1980-030T","12345","7245.340","102.293","1311.830","422.580","1"
"GENERATED VIA SPACETRACK.ORG API","18 SPCS","12345","COSMOS 1174 DEB","DEBRIS","U","80030T","1986-01-26 18:32:37","567392","14.07715391","0.0613827","66.0588","299.0075","158.3102","204.5204","0","999","74283","0.00020845","0.00002061","0","34507","0 COSMOS 1174 DEB","1 12345U 80030T   86026.77265703  .00002061 +00000-0 +20845-3 0  9996","2 12345 066.0588 299.0075 0613827 158.3102 204.5204 14.07715391742838","1980-030T","12345","7245.342","102.293","1311.945","422.468","1"
"GENERATED VIA SPACETRACK.ORG API","18 SPCS","12345","COSMOS 1174 DEB","DEBRIS","U","80030T","1986-01-23 18:55:44","302080","14.07702317","0.0614057","66.0584","306.7846","160.0512","202.5795","0","999","74241","0.00016163","0.00001573","0","34507","0 COSMOS 1174 DEB","1 12345U 80030T   86023.78870720  .00001573 +00000-0 +16163-3 0  9990","2 12345 066.0584 306.7846 0614057 160.0512 202.5795 14.07702317742418","1980-030T","12345","7245.387","102.294","1312.160","422.344","1"
"GENERATED VIA SPACETRACK.ORG API","18 SPCS","12345","COSMOS 1174 DEB","DEBRIS","U","80030T","1986-01-22 00:18:02","984256","14.07692515","0.0613812","66.0603","311.4178","161.024","201.4807","0","999","74216","0.000060699","0.00000574","0","34507","0 COSMOS 1174 DEB","1 12345U 80030T   86022.01253454  .00000574 +00000-0 +60699-4 0  9998","2 12345 066.0603 311.4178 0613812 161.0240 201.4807 14.07692515742160","1980-030T","12345","7245.420","102.295","1312.018","422.553","1"
"GENERATED VIA SPACETRACK.ORG API","18 SPCS","12345","COSMOS 1174 DEB","DEBRIS","U","80030T","1986-01-16 01:04:09","254783","14.07683519","0.0614507","66.0595","326.9732","164.4657","197.6318","0","999","74132","0.00010182","0.00000947","0","34507","0 COSMOS 1174 DEB","1 12345U 80030T   86016.04455156  .00000947 +00000-0 +10182-3 0  9992","2 12345 066.0595 326.9732 0614507 164.4657 197.6318 14.07683519741322","1980-030T","12345","7245.451","102.296","1312.554","422.078","1"
"GENERATED VIA SPACETRACK.ORG API","18 SPCS","12345","COSMOS 1174 DEB","DEBRIS","U","80030T","1986-01-15 01:11:49","848863","14.0767919","0.0614381","66.0599","329.5671","165.0234","196.995","0","999","74118","0.000078308","0.0000076","0","34507","0 COSMOS 1174 DEB","1 12345U 80030T   86015.04988251  .00000760 +00000-0 +78308-4 0  9996","2 12345 066.0599 329.5671 0614381 165.0234 196.9950 14.07679190741183","1980-030T","12345","7245.466","102.296","1312.479","422.183","1"
"GENERATED VIA SPACETRACK.ORG API","18 SPCS","12345","COSMOS 1174 DEB","DEBRIS","U","80030T","1986-01-10 22:17:53","645567","14.07670233","0.0615781","66.0555","340.3015","167.3873","194.3546","0","999","74060","0.00017755","0.00001756","0","34507","0 COSMOS 1174 DEB","1 12345U 80030T   86010.92909312  .00001756 +00000-0 +17755-3 0  9993","2 12345 066.0555 340.3015 0615781 167.3873 194.3546 14.07670233740605","1980-030T","12345","7245.497","102.297","1313.526","421.198","1"
"GENERATED VIA SPACETRACK.ORG API","18 SPCS","12345","COSMOS 1174 DEB","DEBRIS","U","80030T","1986-01-09 08:47:04","420896","14.07660994","0.0616054","66.0556","344.3753","168.2759","193.3481","0","999","74038","0.00011495","0.00001096","0","34507","0 COSMOS 1174 DEB","1 12345U 80030T   86009.36602339  .00001096 +00000-0 +11495-3 0  9990","2 12345 066.0556 344.3753 0616054 168.2759 193.3481 14.07660994740381","1980-030T","12345","7245.528","102.297","1313.757","421.030","1"
"GENERATED VIA SPACETRACK.ORG API","18 SPCS","12345","COSMOS 1174 DEB","DEBRIS","U","80030T","1986-01-07 00:30:49","570848","14.076535","0.0615547","66.0601","350.4931","169.6134","191.8369","0","999","74005","0.000048196","0.00000448","0","34507","0 COSMOS 1174 DEB","1 12345U 80030T   86007.02140707  .00000448 +00000-0 +48196-4 0  9996","2 12345 066.0601 350.4931 0615547 169.6134 191.8369 14.07653500740053","1980-030T","12345","7245.554","102.298","1313.417","421.421","1"
"GENERATED VIA SPACETRACK.ORG API","18 SPCS","12345","COSMOS 1174 DEB","DEBRIS","U","80030T","1986-01-05 00:46:06","902111","14.07652936","0.0615936","66.0606","355.6782","170.7571","190.5432","0","999","73977","0.000068971","0.00000669","0","34507","0 COSMOS 1174 DEB","1 12345U 80030T   86005.03202433  .00000669 +00000-0 +68971-4 0  9998","2 12345 066.0606 355.6782 0615936 170.7571 190.5432 14.07652936739775","1980-030T","12345","7245.556","102.298","1313.701","421.141","1"
"GENERATED VIA SPACETRACK.ORG API","18 SPCS","12345","COSMOS 1174 DEB","DEBRIS","U","80030T","1986-01-03 01:01:24","380256","14.07651688","0.061562","66.0581","0.8623","171.8747","189.2838","0","999","73949","0.00011551","0.00001098","0","34507","0 COSMOS 1174 DEB","1 12345U 80030T   86003.04264329  .00001098 +00000-0 +11551-3 0  9997","2 12345 066.0581 000.8623 0615620 171.8747 189.2838 14.07651688739494","1980-030T","12345","7245.560","102.298","1313.477","421.374","1"
